{
  "type": "FeatureCollection",
  "features": [
    {
      "type": "Feature",
      "properties": {
        "norad_id": 43260,
        "name": "GAOFEN-1 03",
        "group": "resource",
        "lat": 31.50484305401526,
        "lon": 35.99036046212138,
        "alt_km": 637.9704157972155,
        "timestamp": "2025-12-09T07:41:32.860538+00:00",
        "meta_object_name": "GAOFEN-1 03",
        "meta_object_id": "2018-031B",
        "meta_epoch": "2025-12-08T23:24:57.685824",
        "meta_mean_motion": 14.76423902,
        "meta_eccentricity": 0.00022373,
        "meta_inclination": 98.0804,
        "meta_ra_of_asc_node": 40.6408,
        "meta_arg_of_pericenter": 338.3605,
        "meta_mean_anomaly": 21.7509,
        "meta_ephemeris_type": 0,
        "meta_classification_type": "U",
        "meta_norad_cat_id": 43260,
        "meta_element_set_no": 999,
        "meta_rev_at_epoch": 41462,
        "meta_bstar": 0.00022092376,
        "meta_mean_motion_dot": 1.484e-05,
        "meta_mean_motion_ddot": 0,
        "tle_line1": "1 43260U 18031B   25342.97566766  .00001484  00000+0  22092-3 0  9990",
        "tle_line2": "2 43260  98.0804  40.6408 0002237 338.3605  21.7509 14.76423902414629"
      },
      "geometry": {
        "type": "Point",
        "coordinates": [
          35.99036046212138,
          31.50484305401526
        ]
      }
    },
    {
      "type": "Feature",
      "properties": {
        "norad_id": 43262,
        "name": "GAOFEN-1 04",
        "group": "resource",
        "lat": 18.52818440122993,
        "lon": -136.11628454124875,
        "alt_km": 641.1444002923163,
        "timestamp": "2025-12-09T07:41:32.860548+00:00",
        "meta_object_name": "GAOFEN-1 04",
        "meta_object_id": "2018-031D",
        "meta_epoch": "2025-12-08T22:49:56.519904",
        "meta_mean_motion": 14.76437796,
        "meta_eccentricity": 0.00012243,
        "meta_inclination": 98.0809,
        "meta_ra_of_asc_node": 40.7852,
        "meta_arg_of_pericenter": 56.1834,
        "meta_mean_anomaly": 303.9492,
        "meta_ephemeris_type": 0,
        "meta_classification_type": "U",
        "meta_norad_cat_id": 43262,
        "meta_element_set_no": 999,
        "meta_rev_at_epoch": 41461,
        "meta_bstar": 0.00020758006,
        "meta_mean_motion_dot": 1.392e-05,
        "meta_mean_motion_ddot": 0,
        "tle_line1": "1 43262U 18031D   25342.95134861  .00001392  00000+0  20758-3 0  9992",
        "tle_line2": "2 43262  98.0809  40.7852 0001224  56.1834 303.9492 14.76437796414615"
      },
      "geometry": {
        "type": "Point",
        "coordinates": [
          -136.11628454124875,
          18.52818440122993
        ]
      }
    },
    {
      "type": "Feature",
      "properties": {
        "norad_id": 43437,
        "name": "SENTINEL-3B",
        "group": "resource",
        "lat": -38.22661598997993,
        "lon": -138.31343765756785,
        "alt_km": 809.467002613178,
        "timestamp": "2025-12-09T07:41:32.860558+00:00",
        "meta_object_name": "SENTINEL-3B",
        "meta_object_id": "2018-039A",
        "meta_epoch": "2025-12-08T18:53:20.894496",
        "meta_mean_motion": 14.26740881,
        "meta_eccentricity": 0.00015311,
        "meta_inclination": 98.627,
        "meta_ra_of_asc_node": 48.0287,
        "meta_arg_of_pericenter": 106.7171,
        "meta_mean_anomaly": 253.4177,
        "meta_ephemeris_type": 0,
        "meta_classification_type": "U",
        "meta_norad_cat_id": 43437,
        "meta_element_set_no": 999,
        "meta_rev_at_epoch": 39697,
        "meta_bstar": 0.00014971501,
        "meta_mean_motion_dot": 3.19e-06,
        "meta_mean_motion_ddot": 0,
        "tle_line1": "1 43437U 18039A   25342.78704739  .00000319  00000+0  14972-3 0  9991",
        "tle_line2": "2 43437  98.6270  48.0287 0001531 106.7171 253.4177 14.26740881396971"
      },
      "geometry": {
        "type": "Point",
        "coordinates": [
          -138.31343765756785,
          -38.22661598997993
        ]
      }
    },
    {
      "type": "Feature",
      "properties": {
        "norad_id": 43461,
        "name": "GAOFEN-5 01",
        "group": "resource",
        "lat": 25.685951837469204,
        "lon": 130.31928144060996,
        "alt_km": 691.8389678460189,
        "timestamp": "2025-12-09T07:41:32.860569+00:00",
        "meta_object_name": "GAOFEN-5 01",
        "meta_object_id": "2018-043A",
        "meta_epoch": "2025-12-08T21:07:26.099616",
        "meta_mean_motion": 14.60403168,
        "meta_eccentricity": 0.00012268,
        "meta_inclination": 98.432,
        "meta_ra_of_asc_node": 305.7801,
        "meta_arg_of_pericenter": 354.7896,
        "meta_mean_anomaly": 5.329,
        "meta_ephemeris_type": 0,
        "meta_classification_type": "U",
        "meta_norad_cat_id": 43461,
        "meta_element_set_no": 999,
        "meta_rev_at_epoch": 40391,
        "meta_bstar": 0.00018217516,
        "meta_mean_motion_dot": 8.33e-06,
        "meta_mean_motion_ddot": 0,
        "tle_line1": "1 43461U 18043A   25342.88016319  .00000833  00000+0  18218-3 0  9992",
        "tle_line2": "2 43461  98.4320 305.7801 0001226 354.7896   5.3290 14.60403168403912"
      },
      "geometry": {
        "type": "Point",
        "coordinates": [
          130.31928144060996,
          25.685951837469204
        ]
      }
    },
    {
      "type": "Feature",
      "properties": {
        "norad_id": 43484,
        "name": "GAOFEN-6",
        "group": "resource",
        "lat": -48.631036649549934,
        "lon": 56.66048365602086,
        "alt_km": 652.1043806479174,
        "timestamp": "2025-12-09T07:41:32.860580+00:00",
        "meta_object_name": "GAOFEN-6",
        "meta_object_id": "2018-048A",
        "meta_epoch": "2025-12-08T23:46:59.503008",
        "meta_mean_motion": 14.76553744,
        "meta_eccentricity": 0.0013324,
        "meta_inclination": 97.8033,
        "meta_ra_of_asc_node": 47.3836,
        "meta_arg_of_pericenter": 74.3618,
        "meta_mean_anomaly": 285.9061,
        "meta_ephemeris_type": 0,
        "meta_classification_type": "U",
        "meta_norad_cat_id": 43484,
        "meta_element_set_no": 999,
        "meta_rev_at_epoch": 40532,
        "meta_bstar": 0.00010673729,
        "meta_mean_motion_dot": 6.96e-06,
        "meta_mean_motion_ddot": 0,
        "tle_line1": "1 43484U 18048A   25342.99096647  .00000696  00000+0  10674-3 0  9991",
        "tle_line2": "2 43484  97.8033  47.3836 0013324  74.3618 285.9061 14.76553744405329"
      },
      "geometry": {
        "type": "Point",
        "coordinates": [
          56.66048365602086,
          -48.631036649549934
        ]
      }
    },
    {
      "type": "Feature",
      "properties": {
        "norad_id": 43585,
        "name": "GAOFEN-11 01",
        "group": "resource",
        "lat": -53.86654355721641,
        "lon": 56.19237885773294,
        "alt_km": 423.72161847632105,
        "timestamp": "2025-12-09T07:41:32.860590+00:00",
        "meta_object_name": "GAOFEN-11 01",
        "meta_object_id": "2018-063A",
        "meta_epoch": "2025-12-08T22:37:29.849376",
        "meta_mean_motion": 15.49045997,
        "meta_eccentricity": 0.00046,
        "meta_inclination": 97.1561,
        "meta_ra_of_asc_node": 45.9087,
        "meta_arg_of_pericenter": 331.5673,
        "meta_mean_anomaly": 28.5327,
        "meta_ephemeris_type": 0,
        "meta_classification_type": "U",
        "meta_norad_cat_id": 43585,
        "meta_element_set_no": 999,
        "meta_rev_at_epoch": 41083,
        "meta_bstar": 0.00017020674,
        "meta_mean_motion_dot": 9.137e-05,
        "meta_mean_motion_ddot": 0,
        "tle_line1": "1 43585U 18063A   25342.94270659  .00009137  00000+0  17021-3 0  9994",
        "tle_line2": "2 43585  97.1561  45.9087 0004600 331.5673  28.5327 15.49045997410833"
      },
      "geometry": {
        "type": "Point",
        "coordinates": [
          56.19237885773294,
          -53.86654355721641
        ]
      }
    },
    {
      "type": "Feature",
      "properties": {
        "norad_id": 43613,
        "name": "ICESAT-2",
        "group": "resource",
        "lat": -61.199472458622026,
        "lon": -116.53320893989128,
        "alt_km": 489.47909715291917,
        "timestamp": "2025-12-09T07:41:32.860600+00:00",
        "meta_object_name": "ICESAT-2",
        "meta_object_id": "2018-070A",
        "meta_epoch": "2025-12-08T22:31:52.191264",
        "meta_mean_motion": 15.28247513,
        "meta_eccentricity": 0.00021642,
        "meta_inclination": 92.0044,
        "meta_ra_of_asc_node": 239.7114,
        "meta_arg_of_pericenter": 158.5623,
        "meta_mean_anomaly": 201.5717,
        "meta_ephemeris_type": 0,
        "meta_classification_type": "U",
        "meta_norad_cat_id": 43613,
        "meta_element_set_no": 999,
        "meta_rev_at_epoch": 40340,
        "meta_bstar": 0.00055854259,
        "meta_mean_motion_dot": 0.00015376,
        "meta_mean_motion_ddot": 0,
        "tle_line1": "1 43613U 18070A   25342.93879851  .00015376  00000+0  55854-3 0  9990",
        "tle_line2": "2 43613  92.0044 239.7114 0002164 158.5623 201.5717 15.28247513403400"
      },
      "geometry": {
        "type": "Point",
        "coordinates": [
          -116.53320893989128,
          -61.199472458622026
        ]
      }
    }
  ]
}